GLOBALSTAR M024         
1 25883U 99043A   25182.69857351 -.00000119  00000+0 -19124-2 0  9994
2 25883  52.0052 347.8801 0002141 115.6578 329.1626 11.10167787116471
GLOBALSTAR M027         
1 25884U 99043B   25182.88752862 -.00000102  00000+0 -14653-2 0  9991
2 25884  52.0228  65.8515 0021977  16.4489 343.7013 11.04371897142869
GLOBALSTAR M054         
1 25885U 99043C   25182.80650257 -.00000062  00000+0  22599-3 0  9992
2 25885  52.0100 190.8800 0005796 203.4663 328.3655 11.39224665120717
GLOBALSTAR M053         
1 25886U 99043D   25182.64126495 -.00000060  00000+0  26390-3 0  9998
2 25886  51.9963 139.1699 0002940  98.7171  89.9406 11.27665781121071
GLOBALSTAR M058         
1 25907U 99049A   25182.96875210 -.00000090  00000+0 -79904-4 0  9993
2 25907  51.9953  69.7039 0001863 315.0155  45.0528 11.93199897154516
GLOBALSTAR M050         
1 25908U 99049B   25182.87065132 -.00000078  00000+0  11155-3 0  9996
2 25908  51.9999  76.5446 0009819  59.9949  18.5329 12.07454540149961
GLOBALSTAR M033         
1 25909U 99049C   25182.76610281 -.00000068  00000+0  22853-3 0  9992
2 25909  51.9928 307.6572 0012890 292.7746  67.1740 12.20294216537524
GLOBALSTAR M055         
1 25910U 99049D   25182.64706173 -.00000062  00000+0  27620-3 0  9998
2 25910  52.0040 318.0363 0007586 157.7322 202.3860 12.29429305170069
